{
  "type": "FeatureCollection",
  "features": [
    {
      "type": "Feature",
      "properties": {
        "norad_id": 31838,
        "name": "FENGYUN 1C DEB",
        "group": "fengyun-1c-debris",
        "lat": -80.30657415165716,
        "lon": 155.51837713002396,
        "alt_km": 856.5701459415477,
        "timestamp": "2025-12-14T18:52:55.787978+00:00",
        "meta_object_name": "FENGYUN 1C DEB",
        "meta_object_id": "1999-025CJC",
        "meta_epoch": "2025-12-11T08:48:04.078368",
        "meta_mean_motion": 14.21128577,
        "meta_eccentricity": 0.00386433,
        "meta_inclination": 98.718,
        "meta_ra_of_asc_node": 36.0771,
        "meta_arg_of_pericenter": 99.3908,
        "meta_mean_anomaly": 318.9348,
        "meta_ephemeris_type": 0,
        "meta_classification_type": "U",
        "meta_norad_cat_id": 31838,
        "meta_element_set_no": 999,
        "meta_rev_at_epoch": 64557,
        "meta_bstar": 0.0011422603,
        "meta_mean_motion_dot": 2.458e-05,
        "meta_mean_motion_ddot": 0,
        "tle_line1": "1 31838U 99025CJC 25345.36671387  .00002458  00000+0  11423-2 0  9999",
        "tle_line2": "2 31838  98.7180  36.0771 0038643  99.3908 318.9348 14.21128577645575"
      },
      "geometry": {
        "type": "Point",
        "coordinates": [
          155.51837713002396,
          -80.30657415165716
        ]
      }
    },
    {
      "type": "Feature",
      "properties": {
        "norad_id": 31841,
        "name": "FENGYUN 1C DEB",
        "group": "fengyun-1c-debris",
        "lat": 16.404610837273314,
        "lon": 154.88021536402667,
        "alt_km": 824.8969020299846,
        "timestamp": "2025-12-14T18:52:55.787989+00:00",
        "meta_object_name": "FENGYUN 1C DEB",
        "meta_object_id": "1999-025CJF",
        "meta_epoch": "2025-12-09T06:12:44.774784",
        "meta_mean_motion": 14.03533428,
        "meta_eccentricity": 0.0308721,
        "meta_inclination": 98.4185,
        "meta_ra_of_asc_node": 152.251,
        "meta_arg_of_pericenter": 315.3739,
        "meta_mean_anomaly": 221.9811,
        "meta_ephemeris_type": 0,
        "meta_classification_type": "U",
        "meta_norad_cat_id": 31841,
        "meta_element_set_no": 999,
        "meta_rev_at_epoch": 59290,
        "meta_bstar": 0.0023276,
        "meta_mean_motion_dot": 5.531e-05,
        "meta_mean_motion_ddot": 0,
        "tle_line1": "1 31841U 99025CJF 25343.25885156  .00005531  00000+0  23276-2 0  9994",
        "tle_line2": "2 31841  98.4185 152.2510 0308721 315.3739 221.9811 14.03533428592904"
      },
      "geometry": {
        "type": "Point",
        "coordinates": [
          154.88021536402667,
          16.404610837273314
        ]
      }
    },
    {
      "type": "Feature",
      "properties": {
        "norad_id": 31843,
        "name": "FENGYUN 1C DEB",
        "group": "fengyun-1c-debris",
        "lat": 46.60672964844093,
        "lon": -80.65402568119816,
        "alt_km": 854.5364180314373,
        "timestamp": "2025-12-14T18:52:55.787999+00:00",
        "meta_object_name": "FENGYUN 1C DEB",
        "meta_object_id": "1999-025CJH",
        "meta_epoch": "2025-12-13T01:16:04.854144",
        "meta_mean_motion": 13.3387193,
        "meta_eccentricity": 0.06402793,
        "meta_inclination": 99.2822,
        "meta_ra_of_asc_node": 287.7229,
        "meta_arg_of_pericenter": 353.3209,
        "meta_mean_anomaly": 5.9681,
        "meta_ephemeris_type": 0,
        "meta_classification_type": "U",
        "meta_norad_cat_id": 31843,
        "meta_element_set_no": 999,
        "meta_rev_at_epoch": 64700,
        "meta_bstar": 0.011102581,
        "meta_mean_motion_dot": 0.00017819,
        "meta_mean_motion_ddot": 0,
        "tle_line1": "1 31843U 99025CJH 25347.05283396  .00017819  00000+0  11103-1 0  9993",
        "tle_line2": "2 31843  99.2822 287.7229 0640279 353.3209   5.9681 13.33871930647007"
      },
      "geometry": {
        "type": "Point",
        "coordinates": [
          -80.65402568119816,
          46.60672964844093
        ]
      }
    },
    {
      "type": "Feature",
      "properties": {
        "norad_id": 31844,
        "name": "FENGYUN 1C DEB",
        "group": "fengyun-1c-debris",
        "lat": 54.926786352962154,
        "lon": -37.228483283310574,
        "alt_km": 795.7945010145195,
        "timestamp": "2025-12-14T18:52:55.788009+00:00",
        "meta_object_name": "FENGYUN 1C DEB",
        "meta_object_id": "1999-025CJJ",
        "meta_epoch": "2025-12-13T22:19:33.784896",
        "meta_mean_motion": 14.19755878,
        "meta_eccentricity": 0.01034294,
        "meta_inclination": 100.3032,
        "meta_ra_of_asc_node": 336.7917,
        "meta_arg_of_pericenter": 347.7797,
        "meta_mean_anomaly": 12.0868,
        "meta_ephemeris_type": 0,
        "meta_classification_type": "U",
        "meta_norad_cat_id": 31844,
        "meta_element_set_no": 999,
        "meta_rev_at_epoch": 95349,
        "meta_bstar": 0.0011790432,
        "meta_mean_motion_dot": 2.577e-05,
        "meta_mean_motion_ddot": 0,
        "tle_line1": "1 31844U 99025CJJ 25347.93025214  .00002577  00000+0  11790-2 0  9992",
        "tle_line2": "2 31844 100.3032 336.7917 0103429 347.7797  12.0868 14.19755878953490"
      },
      "geometry": {
        "type": "Point",
        "coordinates": [
          -37.228483283310574,
          54.926786352962154
        ]
      }
    },
    {
      "type": "Feature",
      "properties": {
        "norad_id": 31850,
        "name": "FENGYUN 1C DEB",
        "group": "fengyun-1c-debris",
        "lat": 23.26229428482306,
        "lon": 29.9600943650927,
        "alt_km": 437.287061236515,
        "timestamp": "2025-12-14T18:52:55.788020+00:00",
        "meta_object_name": "FENGYUN 1C DEB",
        "meta_object_id": "1999-025CJQ",
        "meta_epoch": "2025-12-11T21:51:41.514624",
        "meta_mean_motion": 15.32796894,
        "meta_eccentricity": 0.00770816,
        "meta_inclination": 98.5737,
        "meta_ra_of_asc_node": 30.3469,
        "meta_arg_of_pericenter": 92.2716,
        "meta_mean_anomaly": 268.7351,
        "meta_ephemeris_type": 0,
        "meta_classification_type": "U",
        "meta_norad_cat_id": 31850,
        "meta_element_set_no": 999,
        "meta_rev_at_epoch": 65816,
        "meta_bstar": 0.0039605566,
        "meta_mean_motion_dot": 0.0013997,
        "meta_mean_motion_ddot": 0,
        "tle_line1": "1 31850U 99025CJQ 25345.91089716  .00139970  00000+0  39606-2 0  9996",
        "tle_line2": "2 31850  98.5737  30.3469 0077081  92.2716 268.7351 15.32796894658165"
      },
      "geometry": {
        "type": "Point",
        "coordinates": [
          29.9600943650927,
          23.26229428482306
        ]
      }
    },
    {
      "type": "Feature",
      "properties": {
        "norad_id": 31854,
        "name": "FENGYUN 1C DEB",
        "group": "fengyun-1c-debris",
        "lat": -61.237676072170686,
        "lon": 155.44656192962404,
        "alt_km": 905.2923111679938,
        "timestamp": "2025-12-14T18:52:55.788030+00:00",
        "meta_object_name": "FENGYUN 1C DEB",
        "meta_object_id": "1999-025CJU",
        "meta_epoch": "2025-12-12T17:48:54.033120",
        "meta_mean_motion": 14.03073049,
        "meta_eccentricity": 0.00722693,
        "meta_inclination": 98.8473,
        "meta_ra_of_asc_node": 349.9436,
        "meta_arg_of_pericenter": 141.1479,
        "meta_mean_anomaly": 219.4914,
        "meta_ephemeris_type": 0,
        "meta_classification_type": "U",
        "meta_norad_cat_id": 31854,
        "meta_element_set_no": 999,
        "meta_rev_at_epoch": 69272,
        "meta_bstar": 0.00062449752,
        "meta_mean_motion_dot": 9.51e-06,
        "meta_mean_motion_ddot": 0,
        "tle_line1": "1 31854U 99025CJU 25346.74229205  .00000951  00000+0  62450-3 0  9991",
        "tle_line2": "2 31854  98.8473 349.9436 0072269 141.1479 219.4914 14.03073049692720"
      },
      "geometry": {
        "type": "Point",
        "coordinates": [
          155.44656192962404,
          -61.237676072170686
        ]
      }
    },
    {
      "type": "Feature",
      "properties": {
        "norad_id": 31857,
        "name": "FENGYUN 1C DEB",
        "group": "fengyun-1c-debris",
        "lat": 63.7310332420613,
        "lon": 4.915106326400881,
        "alt_km": 1214.7004775147552,
        "timestamp": "2025-12-14T18:52:55.788040+00:00",
        "meta_object_name": "FENGYUN 1C DEB",
        "meta_object_id": "1999-025CJX",
        "meta_epoch": "2025-12-08T09:09:37.694592",
        "meta_mean_motion": 13.61900061,
        "meta_eccentricity": 0.0309157,
        "meta_inclination": 96.1892,
        "meta_ra_of_asc_node": 13.5368,
        "meta_arg_of_pericenter": 294.2443,
        "meta_mean_anomaly": 62.6695,
        "meta_ephemeris_type": 0,
        "meta_classification_type": "U",
        "meta_norad_cat_id": 31857,
        "meta_element_set_no": 999,
        "meta_rev_at_epoch": 61570,
        "meta_bstar": 0.0028041545,
        "meta_mean_motion_dot": 2.946e-05,
        "meta_mean_motion_ddot": 0,
        "tle_line1": "1 31857U 99025CJX 25342.38168628  .00002946  00000+0  28042-2 0  9995",
        "tle_line2": "2 31857  96.1892  13.5368 0309157 294.2443  62.6695 13.61900061615700"
      },
      "geometry": {
        "type": "Point",
        "coordinates": [
          4.915106326400881,
          63.7310332420613
        ]
      }
    }
  ]
}